{
  "norad_id": 58102,
  "name": "STARLINK-30592",
  "history": [
    {
      "epoch": "2026-03-28T16:42:10.900800",
      "apogee_km": 476.25081689280705,
      "perigee_km": 474.21495483451235,
      "latitude_deg": -33.3656012489451,
      "longitude_deg": 57.01211200002581,
      "semi_major_axis_km": 6853.36988586366,
      "eccentricity": 0.00014853,
      "inclination_deg": 53.1609,
      "raan_deg": 77.1006,
      "arg_perigee_deg": 89.5906,
      "mean_anomaly_deg": 270.5265,
      "mean_motion_rev_day": 15.30194033
    },
    {
      "epoch": "2026-03-29T05:14:36.822336",
      "apogee_km": 476.3101164945783,
      "perigee_km": 474.1773444112605,
      "latitude_deg": 52.3755343754177,
      "longitude_deg": 107.17424703994766,
      "semi_major_axis_km": 6853.380730452919,
      "eccentricity": 0.0001556,
      "inclination_deg": 53.1612,
      "raan_deg": 74.6732,
      "arg_perigee_deg": 93.3945,
      "mean_anomaly_deg": 266.7233,
      "mean_motion_rev_day": 15.30190401
    }
  ]
}